start=new Date('2022-10-10T00:00:00.000Z').valueOf();
sats=[{"TLE_LINE1":"1 53542U 22101R   22282.91667824 -.01056524  00000-0 -22817-1 0  9990","OBJECT_NAME":"STARLINK-4489","SEMIMAJOR_AXIS":"6804.111","ARG_OF_PERICENTER":"70.4298","DECAY_DATE":null,"REV_AT_EPOCH":"130","COUNTRY_CODE":"US","OBJECT_ID":"2022-101R","REF_FRAME":"TEME","BSTAR":"-0.02281700000000","EPHEMERIS_TYPE":"0","OBJECT_TYPE":"PAYLOAD","INCLINATION":"53.2175","RCS_SIZE":"LARGE","SITE":"AFETR","PERIOD":"93.093","MEAN_MOTION_DOT":"-0.01056524","LAUNCH_DATE":"2022-08-19","TLE_LINE2":"2 53542  53.2175 263.4177 0001300  70.4298 181.3061 15.46841016  1308","FILE":"3598879","NORAD_CAT_ID":"53542","TIME_SYSTEM":"UTC","ECCENTRICITY":"0.00013000","EPOCH":"2022-10-09T22:00:00.999936","MEAN_ELEMENT_THEORY":"SGP4","MEAN_ANOMALY":"181.3061","ELEMENT_SET_NO":"999","CLASSIFICATION_TYPE":"U","APOAPSIS":"426.861","MEAN_MOTION_DDOT":"0.0000000000000","CENTER_NAME":"EARTH","GP_ID":"214605509","MEAN_MOTION":"15.46841016","PERIAPSIS":"425.091","RA_OF_ASC_NODE":"263.4177"},{"DECAY_DATE":null,"REV_AT_EPOCH":"130","COUNTRY_CODE":"US","OBJECT_ID":"2022-101S","TLE_LINE1":"1 53543U 22101S   22282.91667824 -.01056492  00000-0 -23344-1 0  9991","OBJECT_NAME":"STARLINK-4297","SEMIMAJOR_AXIS":"6806.040","ARG_OF_PERICENTER":"76.4881","SITE":"AFETR","PERIOD":"93.133","REF_FRAME":"TEME","BSTAR":"-0.02334400000000","EPHEMERIS_TYPE":"0","OBJECT_TYPE":"PAYLOAD","INCLINATION":"53.2174","RCS_SIZE":"LARGE","MEAN_ELEMENT_THEORY":"SGP4","MEAN_ANOMALY":"169.2079","ELEMENT_SET_NO":"999","CLASSIFICATION_TYPE":"U","LAUNCH_DATE":"2022-08-19","MEAN_MOTION_DOT":"-0.01056492","TLE_LINE2":"2 53543  53.2174 263.3893 0001286  76.4881 169.2079 15.46183459  1303","FILE":"3598879","NORAD_CAT_ID":"53543","ECCENTRICITY":"0.00012860","TIME_SYSTEM":"UTC","EPOCH":"2022-10-09T22:00:00.999936","PERIAPSIS":"427.030","RA_OF_ASC_NODE":"263.3893","APOAPSIS":"428.780","MEAN_MOTION_DDOT":"0.0000000000000","CENTER_NAME":"EARTH","GP_ID":"214606086","MEAN_MOTION":"15.46183459"},{"APOAPSIS":"425.147","MEAN_MOTION_DDOT":"0.0000000000000","CENTER_NAME":"EARTH","GP_ID":"214606640","MEAN_MOTION":"15.47431462","PERIAPSIS":"423.343","RA_OF_ASC_NODE":"263.4433","LAUNCH_DATE":"2022-08-19","MEAN_MOTION_DOT":"-0.01056647","TLE_LINE2":"2 53544  53.2175 263.4433 0001326  64.8643 191.1281 15.47431462  1308","FILE":"3598879","TIME_SYSTEM":"UTC","NORAD_CAT_ID":"53544","ECCENTRICITY":"0.00013260","EPOCH":"2022-10-09T22:00:00.999936","MEAN_ELEMENT_THEORY":"SGP4","MEAN_ANOMALY":"191.1281","ELEMENT_SET_NO":"999","CLASSIFICATION_TYPE":"U","REF_FRAME":"TEME","BSTAR":"-0.02235400000000","EPHEMERIS_TYPE":"0","OBJECT_TYPE":"PAYLOAD","INCLINATION":"53.2175","RCS_SIZE":"LARGE","SITE":"AFETR","PERIOD":"93.057","TLE_LINE1":"1 53544U 22101T   22282.91667824 -.01056647  00000-0 -22354-1 0  9994","OBJECT_NAME":"STARLINK-4303","SEMIMAJOR_AXIS":"6802.380","ARG_OF_PERICENTER":"64.8643","DECAY_DATE":null,"REV_AT_EPOCH":"130","COUNTRY_CODE":"US","OBJECT_ID":"2022-101T"},{"SITE":"AFETR","PERIOD":"93.111","REF_FRAME":"TEME","BSTAR":"-0.02305200000000","EPHEMERIS_TYPE":"0","OBJECT_TYPE":"PAYLOAD","INCLINATION":"53.2175","RCS_SIZE":"LARGE","DECAY_DATE":null,"REV_AT_EPOCH":"130","COUNTRY_CODE":"US","OBJECT_ID":"2022-101U","SEMIMAJOR_AXIS":"6804.977","TLE_LINE1":"1 53545U 22101U   22282.91667824 -.01056510  00000-0 -23052-1 0  9990","ARG_OF_PERICENTER":"61.9861","OBJECT_NAME":"STARLINK-4475","PERIAPSIS":"425.913","RA_OF_ASC_NODE":"263.4046","APOAPSIS":"427.771","MEAN_MOTION_DDOT":"0.0000000000000","CENTER_NAME":"EARTH","GP_ID":"214606484","MEAN_MOTION":"15.46545804","MEAN_ELEMENT_THEORY":"SGP4","MEAN_ANOMALY":"187.4151","ELEMENT_SET_NO":"999","CLASSIFICATION_TYPE":"U","LAUNCH_DATE":"2022-08-19","MEAN_MOTION_DOT":"-0.01056510","TLE_LINE2":"2 53545  53.2175 263.4046 0001365  61.9861 187.4151 15.46545804  1301","FILE":"3598879","NORAD_CAT_ID":"53545","ECCENTRICITY":"0.00013650","TIME_SYSTEM":"UTC","EPOCH":"2022-10-09T22:00:00.999936"},{"OBJECT_ID":"2022-101V","COUNTRY_CODE":"US","REV_AT_EPOCH":"130","DECAY_DATE":null,"SEMIMAJOR_AXIS":"6727.740","TLE_LINE1":"1 53546U 22101V   22282.91667824 -.00023995  00000-0 -16620-3 0  9996","OBJECT_NAME":"STARLINK-4477","ARG_OF_PERICENTER":"274.9588","PERIOD":"91.530","SITE":"AFETR","RCS_SIZE":"LARGE","OBJECT_TYPE":"PAYLOAD","INCLINATION":"53.2157","BSTAR":"-0.00016620000000","EPHEMERIS_TYPE":"0","REF_FRAME":"TEME","ELEMENT_SET_NO":"999","CLASSIFICATION_TYPE":"U","MEAN_ELEMENT_THEORY":"SGP4","MEAN_ANOMALY":"298.4485","EPOCH":"2022-10-09T22:00:00.999936","FILE":"3598879","NORAD_CAT_ID":"53546","ECCENTRICITY":"0.00081810","TIME_SYSTEM":"UTC","LAUNCH_DATE":"2022-08-19","MEAN_MOTION_DOT":"-0.00023995","TLE_LINE2":"2 53546  53.2157 260.6521 0008181 274.9588 298.4485 15.73254306  1301","RA_OF_ASC_NODE":"260.6521","PERIAPSIS":"344.101","GP_ID":"214605926","MEAN_MOTION":"15.73254306","MEAN_MOTION_DDOT":"0.0000000000000","CENTER_NAME":"EARTH","APOAPSIS":"355.109"},{"REV_AT_EPOCH":"130","DECAY_DATE":null,"OBJECT_ID":"2022-101W","COUNTRY_CODE":"US","ARG_OF_PERICENTER":"70.9308","TLE_LINE1":"1 53547U 22101W   22282.91667824 -.01056598  00000-0 -22585-1 0  9998","SEMIMAJOR_AXIS":"6803.245","OBJECT_NAME":"STARLINK-4474","SITE":"AFETR","PERIOD":"93.075","EPHEMERIS_TYPE":"0","BSTAR":"-0.02258500000000","REF_FRAME":"TEME","RCS_SIZE":"LARGE","INCLINATION":"53.2175","OBJECT_TYPE":"PAYLOAD","MEAN_ANOMALY":"183.0023","MEAN_ELEMENT_THEORY":"SGP4","CLASSIFICATION_TYPE":"U","ELEMENT_SET_NO":"999","FILE":"3598879","NORAD_CAT_ID":"53547","ECCENTRICITY":"0.00012920","TIME_SYSTEM":"UTC","TLE_LINE2":"2 53547  53.2175 263.4304 0001292  70.9308 183.0023 15.47136237  1302","MEAN_MOTION_DOT":"-0.01056598","LAUNCH_DATE":"2022-08-19","EPOCH":"2022-10-09T22:00:00.999936","PERIAPSIS":"424.231","RA_OF_ASC_NODE":"263.4304","CENTER_NAME":"EARTH","MEAN_MOTION_DDOT":"0.0000000000000","APOAPSIS":"425.989","MEAN_MOTION":"15.47136237","GP_ID":"214605669"},{"COUNTRY_CODE":"US","OBJECT_ID":"2022-101X","DECAY_DATE":null,"REV_AT_EPOCH":"130","OBJECT_NAME":"STARLINK-4513","TLE_LINE1":"1 53548U 22101X   22282.91667824 -.01056864  00000-0 -21679-1 0  9998","SEMIMAJOR_AXIS":"6799.803","ARG_OF_PERICENTER":"64.6467","PERIOD":"93.005","SITE":"AFETR","INCLINATION":"53.2175","OBJECT_TYPE":"PAYLOAD","RCS_SIZE":"LARGE","REF_FRAME":"TEME","EPHEMERIS_TYPE":"0","BSTAR":"-0.02167900000000","CLASSIFICATION_TYPE":"U","ELEMENT_SET_NO":"999","MEAN_ANOMALY":"197.0634","MEAN_ELEMENT_THEORY":"SGP4","EPOCH":"2022-10-09T22:00:00.999936","TLE_LINE2":"2 53548  53.2175 263.4803 0001313  64.6467 197.0634 15.48311288  1302","LAUNCH_DATE":"2022-08-19","MEAN_MOTION_DOT":"-0.01056864","FILE":"3598879","ECCENTRICITY":"0.00013130","NORAD_CAT_ID":"53548","TIME_SYSTEM":"UTC","RA_OF_ASC_NODE":"263.4803","PERIAPSIS":"420.775","MEAN_MOTION":"15.48311288","GP_ID":"214606406","APOAPSIS":"422.561","CENTER_NAME":"EARTH","MEAN_MOTION_DDOT":"0.0000000000000"},{"TLE_LINE1":"1 53549U 22101Y   22282.91667824 -.01056727  00000-0 -22126-1 0  9995","OBJECT_NAME":"STARLINK-4516","SEMIMAJOR_AXIS":"6801.515","ARG_OF_PERICENTER":"68.3960","COUNTRY_CODE":"US","OBJECT_ID":"2022-101Y","DECAY_DATE":null,"REV_AT_EPOCH":"130","OBJECT_TYPE":"PAYLOAD","INCLINATION":"53.2175","RCS_SIZE":"LARGE","REF_FRAME":"TEME","BSTAR":"-0.02212600000000","EPHEMERIS_TYPE":"0","PERIOD":"93.040","SITE":"AFETR","EPOCH":"2022-10-09T22:00:00.999936","MEAN_MOTION_DOT":"-0.01056727","LAUNCH_DATE":"2022-08-19","TLE_LINE2":"2 53549  53.2175 263.4558 0001297  68.3960 189.5182 15.47726685  1304","NORAD_CAT_ID":"53549","FILE":"3598879","TIME_SYSTEM":"UTC","ECCENTRICITY":"0.00012970","ELEMENT_SET_NO":"999","CLASSIFICATION_TYPE":"U","MEAN_ELEMENT_THEORY":"SGP4","MEAN_ANOMALY":"189.5182","GP_ID":"214606249","MEAN_MOTION":"15.47726685","APOAPSIS":"424.262","MEAN_MOTION_DDOT":"0.0000000000000","CENTER_NAME":"EARTH","RA_OF_ASC_NODE":"263.4558","PERIAPSIS":"422.498"},{"RCS_SIZE":"LARGE","OBJECT_TYPE":"PAYLOAD","INCLINATION":"53.2175","BSTAR":"-0.02146200000000","EPHEMERIS_TYPE":"0","REF_FRAME":"TEME","PERIOD":"92.987","SITE":"AFETR","SEMIMAJOR_AXIS":"6798.938","TLE_LINE1":"1 53550U 22101Z   22282.91667824 -.01057298  00000-0 -21462-1 0  9993","ARG_OF_PERICENTER":"40.3479","OBJECT_NAME":"STARLINK-4518","OBJECT_ID":"2022-101Z","COUNTRY_CODE":"US","REV_AT_EPOCH":"130","DECAY_DATE":null,"GP_ID":"214605510","MEAN_MOTION":"15.48606706","MEAN_MOTION_DDOT":"0.0000000000000","CENTER_NAME":"EARTH","APOAPSIS":"421.924","RA_OF_ASC_NODE":"263.4928","PERIAPSIS":"419.682","EPOCH":"2022-10-09T22:00:00.999936","TIME_SYSTEM":"UTC","FILE":"3598879","NORAD_CAT_ID":"53550","ECCENTRICITY":"0.00016490","MEAN_MOTION_DOT":"-0.01057298","LAUNCH_DATE":"2022-08-19","TLE_LINE2":"2 53550  53.2175 263.4928 0001649  40.3479 222.8734 15.48606706  1309","ELEMENT_SET_NO":"999","CLASSIFICATION_TYPE":"U","MEAN_ELEMENT_THEORY":"SGP4","MEAN_ANOMALY":"222.8734"},{"REF_FRAME":"TEME","EPHEMERIS_TYPE":"0","BSTAR":"-0.02189900000000","INCLINATION":"53.2175","OBJECT_TYPE":"PAYLOAD","RCS_SIZE":"LARGE","SITE":"AFETR","PERIOD":"93.022","OBJECT_NAME":"STARLINK-4514","TLE_LINE1":"1 53551U 22101AA  22282.91667824 -.01056778  00000-0 -21899-1 0  9990","SEMIMAJOR_AXIS":"6800.650","ARG_OF_PERICENTER":"68.2691","DECAY_DATE":null,"REV_AT_EPOCH":"130","COUNTRY_CODE":"US","OBJECT_ID":"2022-101AA","APOAPSIS":"423.395","CENTER_NAME":"EARTH","MEAN_MOTION_DDOT":"0.0000000000000","MEAN_MOTION":"15.48021913","GP_ID":"214606087","PERIAPSIS":"421.636","RA_OF_ASC_NODE":"263.4684","TLE_LINE2":"2 53551  53.2175 263.4684 0001293  68.2691 191.4291 15.48021913  1309","MEAN_MOTION_DOT":"-0.01056778","LAUNCH_DATE":"2022-08-19","FILE":"3598879","ECCENTRICITY":"0.00012930","NORAD_CAT_ID":"53551","TIME_SYSTEM":"UTC","EPOCH":"2022-10-09T22:00:00.999936","MEAN_ANOMALY":"191.4291","MEAN_ELEMENT_THEORY":"SGP4","CLASSIFICATION_TYPE":"U","ELEMENT_SET_NO":"999"}];
